OBJECT_NAME,OBJECT_ID,EPOCH,MEAN_MOTION,ECCENTRICITY,INCLINATION,RA_OF_ASC_NODE,ARG_OF_PERICENTER,MEAN_ANOMALY,EPHEMERIS_TYPE,CLASSIFICATION_TYPE,NORAD_CAT_ID,ELEMENT_SET_NO,REV_AT_EPOCH,BSTAR,MEAN_MOTION_DOT,MEAN_MOTION_DDOT
KUIPER-00533,2026-140P,2026-07-05T18:36:54.569376,15.38093767,.00076164,51.8791,308.8003,290.8506,69.1665,0,U,69605,999,409,.61031791E-3,.22939E-3,0
KUIPER-00534,2026-140Q,2026-07-05T19:46:20.739360,15.38606090,.00136932,51.8810,308.3832,231.4565,128.5196,0,U,69606,999,410,.81423788E-3,.31359E-3,0
KUIPER-00537,2026-140R,2026-07-05T20:50:00.598272,15.34782901,.00096786,51.8820,308.6684,22.3310,337.8096,0,U,69607,999,410,.10835843E-2,.36946E-3,0
KUIPER-00538,2026-140S,2026-07-05T20:21:05.835744,15.37567194,.00062284,51.8815,308.5392,306.9851,53.0565,0,U,69608,999,410,.88002528E-3,.32716E-3,0
KUIPER-00540,2026-140T,2026-07-06T04:00:01.999584,15.36785991,.00060751,51.8822,307.0827,353.9770,290.1827,0,U,69609,999,355,.16425807E-2,.60081E-3,0
KUIPER-00541,2026-140U,2026-07-05T23:18:19.399104,15.38253714,.00071036,51.8826,307.8678,295.2284,64.7966,0,U,69610,999,412,.10826179E-2,.41309E-3,0
KUIPER-00542,2026-140V,2026-07-05T18:35:11.437152,15.38211743,.00078719,51.8774,308.7944,267.6062,92.4023,0,U,69611,999,409,.69494698E-3,.2629E-3,0
KUIPER-00543,2026-140W,2026-07-05T17:29:43.737216,15.36684958,.00077194,51.8802,309.2309,2.4996,357.6028,0,U,69612,999,408,.10215697E-2,.36996E-3,0
KUIPER-00544,2026-140X,2026-07-05T18:40:15.234240,15.38001839,.00063134,51.8781,308.8161,282.7402,77.2879,0,U,69613,999,409,.11989189E-2,.4543E-3,0
KUIPER-00546,2026-140Y,2026-07-05T18:14:41.075232,15.38750227,.00146292,51.8786,308.7021,228.2327,131.7411,0,U,69614,999,409,.8829823E-3,.34231E-3,0
KUIPER-00547,2026-140Z,2026-07-05T18:29:28.735872,15.37704825,.00109319,51.8823,308.7740,252.5930,107.3862,0,U,69615,999,409,.78102836E-3,.29145E-3,0
KUIPER-00549,2026-140AA,2026-07-05T17:20:34.831968,15.37244409,.00071794,51.8805,309.1919,342.1175,17.9558,0,U,69616,999,408,.7895816E-3,.28996E-3,0
KUIPER-00550,2026-140AB,2026-07-06T04:00:01.999584,15.33493362,.0007121,51.8806,307.2957,18.7631,157.2149,0,U,69617,999,339,.18997199E-2,.62616E-3,0
KUIPER-00551,2026-140AC,2026-07-05T18:21:30.545568,15.38064352,.00123651,51.8790,308.7323,242.6084,117.3645,0,U,69618,999,409,.53404589E-3,.20025E-3,0
KUIPER-00554,2026-140AD,2026-07-05T18:27:26.863488,15.37828438,.00112929,51.8788,308.7598,252.9936,106.9814,0,U,69619,999,409,.94428036E-3,.35498E-3,0
KUIPER-00555,2026-140AE,2026-07-05T19:57:30.884544,15.37959688,.0011507,51.8819,308.4339,244.4226,115.5572,0,U,69620,999,410,.7318356E-3,.27513E-3,0
KUIPER-00556,2026-140AF,2026-07-05T19:58:34.490496,15.38156156,.00121324,51.8807,308.4364,231.5483,128.4416,0,U,69621,999,410,.7320145E-3,.27706E-3,0
KUIPER-00557,2026-140AG,2026-07-05T16:58:37.345152,15.37376128,.00098584,51.8815,309.0991,260.9301,99.0570,0,U,69622,999,408,.93264817E-3,.34519E-3,0
KUIPER-00560,2026-140AH,2026-07-05T18:28:52.459104,15.38722952,.00087176,51.8792,308.7645,267.0865,92.9125,0,U,69623,999,409,.59207684E-3,.22714E-3,0
KUIPER-00561,2026-140AJ,2026-07-05T18:31:43.401504,15.38531824,.00079568,51.8825,308.7846,268.7053,91.3023,0,U,69624,999,409,.62315623E-3,.23775E-3,0
KUIPER-00564,2026-140AK,2026-07-05T16:52:52.854528,15.38853108,.00094374,51.8815,309.0731,257.3965,102.5968,0,U,69625,999,408,.79694671E-3,.30884E-3,0
KUIPER-00567,2026-140AL,2026-07-05T18:22:01.769664,15.38306824,.00128997,51.8778,308.7331,232.5718,127.4096,0,U,69626,999,409,.53911791E-3,.20387E-3,0
KUIPER-00573,2026-140AM,2026-07-05T18:36:50.620032,15.37275666,.00093422,51.8789,308.8014,248.1867,111.8126,0,U,69627,999,409,.11308239E-2,.41835E-3,0
KZ-11 R/B,2026-138H,2026-07-06T06:42:00.453024,15.32879020,.04173425,55.1560,197.5330,127.2420,236.7451,0,U,69628,999,287,.78756738E-3,.736101E-2,.9596053E-5
ZHUQUE-2E DEB,2026-128D,2026-07-06T02:33:55.727136,15.75647940,.00501629,54.5305,213.7297,13.5000,346.7367,0,U,69629,999,416,.15793699E-2,.274338E-2,0
ZHUQUE-2E DEB,2026-128E,2026-07-06T01:51:46.291104,15.58609134,.00783031,54.5278,215.5079,23.8424,336.6202,0,U,69630,999,412,.20828406E-3,.18257E-3,0
ZHUQUE-2E DEB,2026-128F,2026-07-06T01:57:55.898208,15.66805594,.00625558,54.5242,214.9143,16.2150,344.0867,0,U,69631,999,413,.23161659E-2,.285117E-2,0
ZHUQUE-2E DEB,2026-128J,2026-07-06T04:25:11.965728,16.03633583,.00440575,54.5204,211.3223,53.4376,307.0717,0,U,69634,999,407,.54062369E-2,.3129704E-1,.16325731E-1
CENTISPACE-1 GROUP 05 OBJECT J,2026-138J,2026-07-06T06:34:35.090400,14.15845390,.00089104,55.1388,210.6454,324.2915,35.7462,0,U,69636,999,269,-.13974448E-3,-.43E-5,0
VICTUS HAZE PUMA,2026-142A,2026-07-06T07:07:44.909184,15.20802356,.00253012,97.4477,84.7036,299.0120,60.8580,0,U,69646,999,257,.19386484E-4,.359E-5,0
