KUIPER-00533            
1 69605U 26140P   26186.77563159  .00022939  00000+0  61032-3 0  9994
2 69605  51.8791 308.8003 0007616 290.8506  69.1665 15.38093767  4096
KUIPER-00534            
1 69606U 26140Q   26186.82385115  .00031359  00000+0  81424-3 0  9998
2 69606  51.8810 308.3832 0013693 231.4565 128.5196 15.38606090  4102
KUIPER-00537            
1 69607U 26140R   26186.86806248  .00036946  00000+0  10836-2 0  9993
2 69607  51.8820 308.6684 0009678  22.3310 337.8096 15.34782901  4101
KUIPER-00538            
1 69608U 26140S   26186.84798421  .00032716  00000+0  88003-3 0  9998
2 69608  51.8815 308.5392 0006228 306.9851  53.0565 15.37567194  4106
KUIPER-00540            
1 69609U 26140T   26187.16668981  .00060081  00000+0  16426-2 0  9997
2 69609  51.8822 307.0827 0006075 353.9770 290.1827 15.36785991  3553
KUIPER-00541            
1 69610U 26140U   26186.97105786  .00041309  00000+0  10826-2 0  9996
2 69610  51.8826 307.8678 0007103 295.2284  64.7966 15.38253714  4120
KUIPER-00542            
1 69611U 26140V   26186.77443793  .00026290  00000+0  69495-3 0  9997
2 69611  51.8774 308.7944 0007871 267.6062  92.4023 15.38211743  4092
KUIPER-00543            
1 69612U 26140W   26186.72897844  .00036996  00000+0  10216-2 0  9993
2 69612  51.8802 309.2309 0007719   2.4996 357.6028 15.36684958  4088
KUIPER-00544            
1 69613U 26140X   26186.77795410  .00045430  00000+0  11989-2 0  9996
2 69613  51.8781 308.8161 0006313 282.7402  77.2879 15.38001839  4093
KUIPER-00546            
1 69614U 26140Y   26186.76019763  .00034231  00000+0  88298-3 0  9991
2 69614  51.8786 308.7021 0014629 228.2327 131.7411 15.38750227  4093
KUIPER-00547            
1 69615U 26140Z   26186.77047148  .00029145  00000+0  78103-3 0  9993
2 69615  51.8823 308.7740 0010931 252.5930 107.3862 15.37704825  4097
KUIPER-00549            
1 69616U 26140AA  26186.72262537  .00028996  00000+0  78958-3 0  9991
2 69616  51.8805 309.1919 0007179 342.1175  17.9558 15.37244409  4082
KUIPER-00550            
1 69617U 26140AB  26187.16668981  .00062616  00000+0  18997-2 0  9997
2 69617  51.8806 307.2957 0007121  18.7631 157.2149 15.33493362  3392
KUIPER-00551            
1 69618U 26140AC  26186.76493687  .00020025  00000+0  53405-3 0  9994
2 69618  51.8790 308.7323 0012365 242.6084 117.3645 15.38064352  4098
KUIPER-00554            
1 69619U 26140AD  26186.76906092  .00035498  00000+0  94428-3 0  9994
2 69619  51.8788 308.7598 0011292 252.9936 106.9814 15.37828438  4092
KUIPER-00555            
1 69620U 26140AE  26186.83160746  .00027513  00000+0  73184-3 0  9997
2 69620  51.8819 308.4339 0011507 244.4226 115.5572 15.37959688  4107
KUIPER-00556            
1 69621U 26140AF  26186.83234364  .00027706  00000+0  73201-3 0  9990
2 69621  51.8807 308.4364 0012132 231.5483 128.4416 15.38156156  4100
KUIPER-00557            
1 69622U 26140AG  26186.70737668  .00034519  00000+0  93265-3 0  9994
2 69622  51.8815 309.0991 0009858 260.9301  99.0570 15.37376128  4082
KUIPER-00560            
1 69623U 26140AH  26186.77005161  .00022714  00000+0  59208-3 0  9991
2 69623  51.8792 308.7645 0008717 267.0865  92.9125 15.38722952  4095
KUIPER-00561            
1 69624U 26140AJ  26186.77203011  .00023775  00000+0  62316-3 0  9998
2 69624  51.8825 308.7846 0007956 268.7053  91.3023 15.38531824  4093
KUIPER-00564            
1 69625U 26140AK  26186.70338952  .00030884  00000+0  79695-3 0  9992
2 69625  51.8815 309.0731 0009437 257.3965 102.5968 15.38853108  4086
KUIPER-00567            
1 69626U 26140AL  26186.76529826  .00020387  00000+0  53912-3 0  9992
2 69626  51.8778 308.7331 0012899 232.5718 127.4096 15.38306824  4091
KUIPER-00573            
1 69627U 26140AM  26186.77558588  .00041835  00000+0  11308-2 0  9994
2 69627  51.8789 308.8014 0009342 248.1867 111.8126 15.37275666  4099
KZ-11 R/B               
1 69628U 26138H   26187.27917191  .00736101  95961-5  78757-3 0  9992
2 69628  55.1560 197.5330 0417342 127.2420 236.7451 15.32879020  2874
ZHUQUE-2E DEB           
1 69629U 26128D   26187.10689499  .00274338  00000+0  15794-2 0  9995
2 69629  54.5305 213.7297 0050162  13.5000 346.7367 15.75647940  4165
ZHUQUE-2E DEB           
1 69630U 26128E   26187.07761911  .00018257  00000+0  20828-3 0  9994
2 69630  54.5278 215.5079 0078303  23.8424 336.6202 15.58609134  4121
ZHUQUE-2E DEB           
1 69631U 26128F   26187.08189697  .00285117  00000+0  23162-2 0  9995
2 69631  54.5242 214.9143 0062555  16.2150 344.0867 15.66805594  4130
ZHUQUE-2E DEB           
1 69634U 26128J   26187.18416627  .03129704  16326-1  54062-2 0  9990
2 69634  54.5204 211.3223 0044057  53.4376 307.0717 16.03633583  4076
CENTISPACE-1 GROUP 05 O*
1 69636U 26138J   26187.27401725 -.00000430  00000+0 -13974-3 0  9997
2 69636  55.1388 210.6454 0008910 324.2915  35.7462 14.15845390  2692
VICTUS HAZE PUMA        
1 69646U 26142A   26187.29704756  .00000359  00000+0  19386-4 0  9997
2 69646  97.4477  84.7036 0025301 299.0120  60.8580 15.20802356  2576
